{
  "lastUpdated": "2025-12-11T03:01:14.852Z",
  "totalCount": 665,
  "satellites": [
    {
      "name": "CYGNUS NG-23",
      "line1": "1 65616U 25208A   25344.54178148  .00015517  00000+0  28443-3 0  9999",
      "line2": "2 65616  51.6308 153.3620 0003360 230.7092 129.3599 15.49478601   221",
      "noradId": 65616,
      "category": "stations"
    },
    {
      "name": "DRAGONFLY",
      "line1": "1 65729U 98067XH  25344.83077118  .00211019  00000+0  16068-2 0  9998",
      "line2": "2 65729  51.6249 145.5341 0006581 265.1045  94.9201 15.71044104 12863",
      "noradId": 65729,
      "category": "stations"
    },
    {
      "name": "1998-067XK",
      "line1": "1 65731U 98067XK  25344.49993669  .00124892  00000+0  12259-2 0  9991",
      "line2": "2 65731  51.6281 148.5918 0005180 231.8122 128.2407 15.65134348 12799",
      "noradId": 65731,
      "category": "stations"
    },
    {
      "name": "RSP-03",
      "line1": "1 65732U 98067XL  25344.82749272  .00161929  00000+0  14116-2 0  9994",
      "line2": "2 65732  51.6264 146.2697 0005892 237.5222 122.5205 15.67939317 12866",
      "noradId": 65732,
      "category": "stations"
    },
    {
      "name": "GHS-01",
      "line1": "1 65733U 98067XM  25344.78584826  .00266358  00000+0  17979-2 0  9994",
      "line2": "2 65733  51.6282 145.2401 0006990 266.9244  93.0955 15.73712574 12875",
      "noradId": 65733,
      "category": "stations"
    },
    {
      "name": "YOTSUBA-KULOVER",
      "line1": "1 65941U 98067XN  25344.46947998  .00090413  00000+0  11321-2 0  9995",
      "line2": "2 65941  51.6286 151.3857 0001550 232.2961 127.7891 15.59021065  9504",
      "noradId": 65941,
      "category": "stations"
    },
    {
      "name": "BOTAN",
      "line1": "1 65942U 98067XP  25344.47987733  .00137252  00000+0  15088-2 0  9995",
      "line2": "2 65942  51.6281 150.7055 0003382 220.3642 139.7102 15.62212709  9512",
      "noradId": 65942,
      "category": "stations"
    },
    {
      "name": "E-KAGAKU-1",
      "line1": "1 65943U 98067XQ  25344.27717868  .00100705  00000+0  12589-2 0  9990",
      "line2": "2 65943  51.6298 152.3458 0005250 191.2269 168.8608 15.59004320  9476",
      "noradId": 65943,
      "category": "stations"
    },
    {
      "name": "HRC MONOBLOCK CAMERA",
      "line1": "1 66052U 98067XR  25344.07885491  .00046287  00000+0  70943-3 0  9991",
      "line2": "2 66052  51.6294 154.7721 0003676 173.0963 187.0078 15.53848796  8427",
      "noradId": 66052,
      "category": "stations"
    },
    {
      "name": "HTV-X1",
      "line1": "1 66174U 25241A   25344.54178148  .00015517  00000+0  28443-3 0  9996",
      "line2": "2 66174  51.6308 153.3620 0003360 230.7092 129.3599 15.49478601   513",
      "noradId": 66174,
      "category": "stations"
    },
    {
      "name": "SZ-21 MODULE",
      "line1": "1 66515U 25246C   25344.49376162  .00035412  00000+0  39111-3 0  9990",
      "line2": "2 66515  41.4772  29.7454 0006278 248.1298 111.8874 15.62311534  4092",
      "noradId": 66515,
      "category": "stations"
    },
    {
      "name": "SHENZHOU-22",
      "line1": "1 66645U 25272A   25344.60082613  .00034963  00000+0  43761-3 0  9997",
      "line2": "2 66645  41.4683  29.6917 0008768  13.0632 347.0432 15.59037498263570",
      "noradId": 66645,
      "category": "stations"
    }
  ]
}